$$SOE
2459580.500000000, A.D. 2022-Jan-01 00:00:00.0000, -5.865311096056502E+09, 2.744677074242640E+09, -2.540096831684927E+08,
2459587.500000000, A.D. 2022-Jan-08 00:00:00.0000, -5.866697952289299E+09, 2.742352971811963E+09, -2.543784250241966E+08,
2459594.500000000, A.D. 2022-Jan-15 00:00:00.0000, -5.868083841553116E+09, 2.740028395514934E+09, -2.547471199388634E+08,
2459601.500000000, A.D. 2022-Jan-22 00:00:00.0000, -5.869468759822346E+09, 2.737703344335725E+09, -2.551157682288566E+08,
2459608.500000000, A.D. 2022-Jan-29 00:00:00.0000, -5.870852702492573E+09, 2.735377819734846E+09, -2.554843701034318E+08,
2459615.500000000, A.D. 2022-Feb-05 00:00:00.0000, -5.872235666587630E+09, 2.733051824977480E+09, -2.558529255169742E+08,
2459622.500000000, A.D. 2022-Feb-12 00:00:00.0000, -5.873617650793368E+09, 2.730725363393568E+09, -2.562214343062801E+08,
2459629.500000000, A.D. 2022-Feb-19 00:00:00.0000, -5.874998654642861E+09, 2.728398437938642E+09, -2.565898962978812E+08,
2459636.500000000, A.D. 2022-Feb-26 00:00:00.0000, -5.876378678164445E+09, 2.726071051332425E+09, -2.569583113244004E+08,
2459643.500000000, A.D. 2022-Mar-05 00:00:00.0000, -5.877757721833297E+09, 2.723743206158306E+09, -2.573266792152086E+08,
2459650.500000000, A.D. 2022-Mar-12 00:00:00.0000, -5.879135786604756E+09, 2.721414904858076E+09, -2.576949997873889E+08,
2459657.500000000, A.D. 2022-Mar-19 00:00:00.0000, -5.880512873958314E+09, 2.719086149650084E+09, -2.580632728415325E+08,
2459664.500000000, A.D. 2022-Mar-26 00:00:00.0000, -5.881888985929868E+09, 2.716756942365094E+09, -2.584314981652029E+08,
2459671.500000000, A.D. 2022-Apr-02 00:00:00.0000, -5.883264125064445E+09, 2.714427284144185E+09, -2.587996755551088E+08,
2459678.500000000, A.D. 2022-Apr-09 00:00:00.0000, -5.884638294017350E+09, 2.712097175003792E+09, -2.591678048827730E+08,
2459685.500000000, A.D. 2022-Apr-16 00:00:00.0000, -5.886011494446565E+09, 2.709766613922153E+09, -2.595358861831863E+08,
2459692.500000000, A.D. 2022-Apr-23 00:00:00.0000, -5.887383726465334E+09, 2.707435600531634E+09, -2.599039195615847E+08,
2459699.500000000, A.D. 2022-Apr-30 00:00:00.0000, -5.888754990525031E+09, 2.705104136171830E+09, -2.602719049303888E+08,
2459706.500000000, A.D. 2022-May-07 00:00:00.0000, -5.890125288665615E+09, 2.702772222329970E+09, -2.606398420185660E+08,
2459713.500000000, A.D. 2022-May-14 00:00:00.0000, -5.891494623744265E+09, 2.700439859506946E+09, -2.610077305326270E+08,
2459720.500000000, A.D. 2022-May-21 00:00:00.0000, -5.892862998673296E+09, 2.698107047267722E+09, -2.613755702209440E+08,
2459727.500000000, A.D. 2022-May-28 00:00:00.0000, -5.894230416146139E+09, 2.695773784517457E+09, -2.617433608758227E+08,
2459734.500000000, A.D. 2022-Jun-04 00:00:00.0000, -5.895596878574263E+09, 2.693440069690601E+09, -2.621111023242774E+08,
2459741.500000000, A.D. 2022-Jun-11 00:00:00.0000, -5.896962388090344E+09, 2.691105900855285E+09, -2.624787944205617E+08,
2459748.500000000, A.D. 2022-Jun-18 00:00:00.0000, -5.898326946578942E+09, 2.688771275746518E+09, -2.628464370428611E+08,
2459755.500000000, A.D. 2022-Jun-25 00:00:00.0000, -5.899690555705216E+09, 2.686436191695220E+09, -2.632140300994716E+08,
2459762.500000000, A.D. 2022-Jul-02 00:00:00.0000, -5.901053216807616E+09, 2.684100645387621E+09, -2.635815735620365E+08,
2459769.500000000, A.D. 2022-Jul-09 00:00:00.0000, -5.902414930264197E+09, 2.681764632632219E+09, -2.639490675470426E+08,
2459776.500000000, A.D. 2022-Jul-16 00:00:00.0000, -5.903775694387775E+09, 2.679428149217272E+09, -2.643165123518800E+08,
2459783.500000000, A.D. 2022-Jul-23 00:00:00.0000, -5.905135506048236E+09, 2.677091192936636E+09, -2.646839082372764E+08,
2459790.500000000, A.D. 2022-Jul-30 00:00:00.0000, -5.906494362937971E+09, 2.674753763430064E+09, -2.650512552376899E+08,
2459797.500000000, A.D. 2022-Aug-06 00:00:00.0000, -5.907852263881630E+09, 2.672415860486119E+09, -2.654185532765707E+08,
2459804.500000000, A.D. 2022-Aug-13 00:00:00.0000, -5.909209208013411E+09, 2.670077483562141E+09, -2.657858022856358E+08,
2459811.500000000, A.D. 2022-Aug-20 00:00:00.0000, -5.910565194391207E+09, 2.667738632017891E+09, -2.661530022251103E+08,
2459818.500000000, A.D. 2022-Aug-27 00:00:00.0000, -5.911920221979499E+09, 2.665399305336279E+09, -2.665201530703205E+08,
2459825.500000000, A.D. 2022-Sep-03 00:00:00.0000, -5.913274289753044E+09, 2.663059503220658E+09, -2.668872547962415E+08,
2459832.500000000, A.D. 2022-Sep-10 00:00:00.0000, -5.914627396831273E+09, 2.660719225592582E+09, -2.672543073661741E+08,
2459839.500000000, A.D. 2022-Sep-17 00:00:00.0000, -5.915979542613984E+09, 2.658378472488302E+09, -2.676213107273407E+08,
2459846.500000000, A.D. 2022-Sep-24 00:00:00.0000, -5.917330726857891E+09, 2.656037243803114E+09, -2.679882648231301E+08,
2459853.500000000, A.D. 2022-Oct-01 00:00:00.0000, -5.918680949454059E+09, 2.653695538861268E+09, -2.683551696459378E+08,
2459860.500000000, A.D. 2022-Oct-08 00:00:00.0000, -5.920030209498903E+09, 2.651353356333508E+09, -2.687220253254769E+08,
2459867.500000000, A.D. 2022-Oct-15 00:00:00.0000, -5.921378504590616E+09, 2.649010695701436E+09, -2.690888320693257E+08,
2459874.500000000, A.D. 2022-Oct-22 00:00:00.0000, -5.922725832532577E+09, 2.646667558584788E+09, -2.694555898934865E+08,
2459881.500000000, A.D. 2022-Oct-29 00:00:00.0000, -5.924072192945959E+09, 2.644323947338168E+09, -2.698222985842917E+08,
2459888.500000000, A.D. 2022-Nov-05 00:00:00.0000, -5.925417586692198E+09, 2.641979863658346E+09, -2.701889578604774E+08,
2459895.500000000, A.D. 2022-Nov-12 00:00:00.0000, -5.926762015070156E+09, 2.639635308469386E+09, -2.705555674518929E+08,
2459902.500000000, A.D. 2022-Nov-19 00:00:00.0000, -5.928105479507355E+09, 2.637290282131447E+09, -2.709221271070186E+08,
2459909.500000000, A.D. 2022-Nov-26 00:00:00.0000, -5.929447981483059E+09, 2.634944784575972E+09, -2.712886365859674E+08,
2459916.500000000, A.D. 2022-Dec-03 00:00:00.0000, -5.930789522517177E+09, 2.632598815355691E+09, -2.716550956552360E+08,
2459923.500000000, A.D. 2022-Dec-10 00:00:00.0000, -5.932130104179445E+09, 2.630252373628174E+09, -2.720215040869056E+08,
2459930.500000000, A.D. 2022-Dec-17 00:00:00.0000, -5.933469728094213E+09, 2.627905458047898E+09, -2.723878616666149E+08,
2459937.500000000, A.D. 2022-Dec-24 00:00:00.0000, -5.934808395831385E+09, 2.625558066501031E+09, -2.727541682256958E+08,
2459944.500000000, A.D. 2022-Dec-31 00:00:00.0000, -5.936146108325915E+09, 2.623210195790424E+09, -2.731204237214519E+08,
2459951.500000000, A.D. 2023-Jan-07 00:00:00.0000, -5.937482864703162E+09, 2.620861842233201E+09, -2.734866282981265E+08,
2459958.500000000, A.D. 2023-Jan-14 00:00:00.0000, -5.938818662477067E+09, 2.618513003667768E+09, -2.738527821074783E+08,
2459965.500000000, A.D. 2023-Jan-21 00:00:00.0000, -5.940153499765944E+09, 2.616163679697604E+09, -2.742188850890212E+08,
2459972.500000000, A.D. 2023-Jan-28 00:00:00.0000, -5.941487375857883E+09, 2.613813869976322E+09, -2.745849370622655E+08,
2459979.500000000, A.D. 2023-Feb-04 00:00:00.0000, -5.942820290334287E+09, 2.611463573561778E+09, -2.749509378643361E+08,
2459986.500000000, A.D. 2023-Feb-11 00:00:00.0000, -5.944152242546773E+09, 2.609112789145658E+09, -2.753168873840114E+08,
2459993.500000000, A.D. 2023-Feb-18 00:00:00.0000, -5.945483231510628E+09, 2.606761515335532E+09, -2.756827855535415E+08,
2460000.500000000, A.D. 2023-Feb-25 00:00:00.0000, -5.946813255951903E+09, 2.604409750827742E+09, -2.760486323354330E+08,
2460007.500000000, A.D. 2023-Mar-04 00:00:00.0000, -5.948142314405795E+09, 2.602057494490167E+09, -2.764144277118765E+08,
2460014.500000000, A.D. 2023-Mar-11 00:00:00.0000, -5.949470405337503E+09, 2.599704745355602E+09, -2.767801716792206E+08,
2460021.500000000, A.D. 2023-Mar-18 00:00:00.0000, -5.950797527238317E+09, 2.597351502476524E+09, -2.771458642556354E+08,
2460028.500000000, A.D. 2023-Mar-25 00:00:00.0000, -5.952123678493397E+09, 2.594997764594281E+09, -2.775115055242691E+08,
2460035.500000000, A.D. 2023-Apr-01 00:00:00.0000, -5.953448856596575E+09, 2.592643530016325E+09, -2.778770957184502E+08,
2460042.500000000, A.D. 2023-Apr-08 00:00:00.0000, -5.954773057327380E+09, 2.590288797926675E+09, -2.782426351921917E+08,
2460049.500000000, A.D. 2023-Apr-15 00:00:00.0000, -5.956096276227211E+09, 2.587933570023594E+09, -2.786081241518551E+08,
2460056.500000000, A.D. 2023-Apr-22 00:00:00.0000, -5.957418510565326E+09, 2.585577849432672E+09, -2.789735625642227E+08,
2460063.500000000, A.D. 2023-Apr-29 00:00:00.0000, -5.958739759059614E+09, 2.583221639148227E+09, -2.793389503076812E+08,
2460070.500000000, A.D. 2023-May-06 00:00:00.0000, -5.960060021112276E+09, 2.580864941784327E+09, -2.797042872595565E+08,
2460077.500000000, A.D. 2023-May-13 00:00:00.0000, -5.961379296537159E+09, 2.578507759741922E+09, -2.800695733031073E+08,
2460084.500000000, A.D. 2023-May-20 00:00:00.0000, -5.962697585544615E+09, 2.576150095301156E+09, -2.804348083159798E+08,
2460091.500000000, A.D. 2023-May-27 00:00:00.0000, -5.964014888790317E+09, 2.573791950609450E+09, -2.807999921605004E+08,
2460098.500000000, A.D. 2023-Jun-03 00:00:00.0000, -5.965331207430493E+09, 2.571433327591456E+09, -2.811651246792349E+08,
2460105.500000000, A.D. 2023-Jun-10 00:00:00.0000, -5.966646543159741E+09, 2.569074227767155E+09, -2.815302056994044E+08,
2460112.500000000, A.D. 2023-Jun-17 00:00:00.0000, -5.967960898142427E+09, 2.566714651918070E+09, -2.818952350595129E+08,
2460119.500000000, A.D. 2023-Jun-24 00:00:00.0000, -5.969274274517646E+09, 2.564354599657249E+09, -2.822602126832366E+08,
2460126.500000000, A.D. 2023-Jul-01 00:00:00.0000, -5.970586673224620E+09, 2.561994069731204E+09, -2.826251386563536E+08,
2460133.500000000, A.D. 2023-Jul-08 00:00:00.0000, -5.971898093822522E+09, 2.559633061875871E+09, -2.829900130861416E+08,
2460140.500000000, A.D. 2023-Jul-15 00:00:00.0000, -5.973208536581470E+09, 2.557271577396902E+09, -2.833548358575270E+08,
$$EOE